[{"COMMENT":"GENERATED VIA SPACETRACK.ORG API","ORIGINATOR":"18 SPCS","NORAD_CAT_ID":"43477","OBJECT_NAME":"GRACE-FO 2","OBJECT_TYPE":"PAYLOAD","CLASSIFICATION_TYPE":"U","INTLDES":"18047B","EPOCH":"2024-01-04 20:59:28","EPOCH_MICROSECONDS":"42368","MEAN_MOTION":"15.27763869","ECCENTRICITY":"0.0012998","INCLINATION":"88.9836","RA_OF_ASC_NODE":"321.6881","ARG_OF_PERICENTER":"355.5405","MEAN_ANOMALY":"4.5726","EPHEMERIS_TYPE":"0","ELEMENT_SET_NO":"999","REV_AT_EPOCH":"31277","BSTAR":"0.000098632","MEAN_MOTION_DOT":"0.00002709","MEAN_MOTION_DDOT":"0","FILE":"4153411","TLE_LINE0":"0 GRACE-FO 2","TLE_LINE1":"1 43477U 18047B   24004.87463012  .00002709  00000-0  98632-4 0  9996","TLE_LINE2":"2 43477  88.9836 321.6881 0012998 355.5405   4.5726 15.27763869312772","OBJECT_ID":"2018-047B","OBJECT_NUMBER":"43477","SEMIMAJOR_AXIS":"6860.636","PERIOD":"94.255","APOGEE":"491.418","PERIGEE":"473.583","DECAYED":"0"},{"COMMENT":"GENERATED VIA SPACETRACK.ORG API","ORIGINATOR":"18 SPCS","NORAD_CAT_ID":"43477","OBJECT_NAME":"GRACE-FO 2","OBJECT_TYPE":"PAYLOAD","CLASSIFICATION_TYPE":"U","INTLDES":"18047B","EPOCH":"2024-01-05 14:17:00","EPOCH_MICROSECONDS":"158208","MEAN_MOTION":"15.27762488","ECCENTRICITY":"0.0012813","INCLINATION":"88.9837","RA_OF_ASC_NODE":"321.5893","ARG_OF_PERICENTER":"351.9471","MEAN_ANOMALY":"8.157","EPHEMERIS_TYPE":"0","ELEMENT_SET_NO":"999","REV_AT_EPOCH":"31288","BSTAR":"0.000017421","MEAN_MOTION_DOT":"0.00000505","MEAN_MOTION_DDOT":"0","FILE":"4154254","TLE_LINE0":"0 GRACE-FO 2","TLE_LINE1":"1 43477U 18047B   24005.59514072  .00000505  00000-0  17421-4 0  9998","TLE_LINE2":"2 43477  88.9837 321.5893 0012813 351.9471   8.1570 15.27762488312889","OBJECT_ID":"2018-047B","OBJECT_NUMBER":"43477","SEMIMAJOR_AXIS":"6860.640","PERIOD":"94.255","APOGEE":"491.295","PERIGEE":"473.714","DECAYED":"0"},{"COMMENT":"GENERATED VIA SPACETRACK.ORG API","ORIGINATOR":"18 SPCS","NORAD_CAT_ID":"43477","OBJECT_NAME":"GRACE-FO 2","OBJECT_TYPE":"PAYLOAD","CLASSIFICATION_TYPE":"U","INTLDES":"18047B","EPOCH":"2024-01-05 22:08:36","EPOCH_MICROSECONDS":"507264","MEAN_MOTION":"15.27763638","ECCENTRICITY":"0.0012681","INCLINATION":"88.9836","RA_OF_ASC_NODE":"321.5447","ARG_OF_PERICENTER":"350.451","MEAN_ANOMALY":"9.6496","EPHEMERIS_TYPE":"0","ELEMENT_SET_NO":"999","REV_AT_EPOCH":"31293","BSTAR":"0.000017384","MEAN_MOTION_DOT":"0.00000504","MEAN_MOTION_DDOT":"0","FILE":"4154502","TLE_LINE0":"0 GRACE-FO 2","TLE_LINE1":"1 43477U 18047B   24005.92264476  .00000504  00000-0  17384-4 0  9992","TLE_LINE2":"2 43477  88.9836 321.5447 0012681 350.4510   9.6496 15.27763638312931","OBJECT_ID":"2018-047B","OBJECT_NUMBER":"43477","SEMIMAJOR_AXIS":"6860.636","PERIOD":"94.255","APOGEE":"491.201","PERIGEE":"473.801","DECAYED":"0"},{"COMMENT":"GENERATED VIA SPACETRACK.ORG API","ORIGINATOR":"18 SPCS","NORAD_CAT_ID":"43477","OBJECT_NAME":"GRACE-FO 2","OBJECT_TYPE":"PAYLOAD","CLASSIFICATION_TYPE":"U","INTLDES":"18047B","EPOCH":"2024-01-05 22:08:36","EPOCH_MICROSECONDS":"507264","MEAN_MOTION":"15.27763638","ECCENTRICITY":"0.0012681","INCLINATION":"88.9836","RA_OF_ASC_NODE":"321.5447","ARG_OF_PERICENTER":"350.451","MEAN_ANOMALY":"9.6496","EPHEMERIS_TYPE":"0","ELEMENT_SET_NO":"999","REV_AT_EPOCH":"31293","BSTAR":"0.000017384","MEAN_MOTION_DOT":"0.00000504","MEAN_MOTION_DDOT":"0","FILE":"4154585","TLE_LINE0":"0 GRACE-FO 2","TLE_LINE1":"1 43477U 18047B   24005.92264476  .00000504  00000-0  17384-4 0  9992","TLE_LINE2":"2 43477  88.9836 321.5447 0012681 350.4510   9.6496 15.27763638312931","OBJECT_ID":"2018-047B","OBJECT_NUMBER":"43477","SEMIMAJOR_AXIS":"6860.636","PERIOD":"94.255","APOGEE":"491.201","PERIGEE":"473.801","DECAYED":"0"},{"COMMENT":"GENERATED VIA SPACETRACK.ORG API","ORIGINATOR":"18 SPCS","NORAD_CAT_ID":"43477","OBJECT_NAME":"GRACE-FO 2","OBJECT_TYPE":"PAYLOAD","CLASSIFICATION_TYPE":"U","INTLDES":"18047B","EPOCH":"2024-01-06 12:17:29","EPOCH_MICROSECONDS":"810976","MEAN_MOTION":"15.27771763","ECCENTRICITY":"0.0012607","INCLINATION":"88.9835","RA_OF_ASC_NODE":"321.4642","ARG_OF_PERICENTER":"348.9154","MEAN_ANOMALY":"11.1815","EPHEMERIS_TYPE":"0","ELEMENT_SET_NO":"999","REV_AT_EPOCH":"31302","BSTAR":"0.00013504","MEAN_MOTION_DOT":"0.00003697","MEAN_MOTION_DDOT":"0","FILE":"4155067","TLE_LINE0":"0 GRACE-FO 2","TLE_LINE1":"1 43477U 18047B   24006.51215059  .00003697  00000-0  13504-3 0  9996","TLE_LINE2":"2 43477  88.9835 321.4642 0012607 348.9154  11.1815 15.27771763313022","OBJECT_ID":"2018-047B","OBJECT_NUMBER":"43477","SEMIMAJOR_AXIS":"6860.612","PERIOD":"94.255","APOGEE":"491.126","PERIGEE":"473.828","DECAYED":"0"},{"COMMENT":"GENERATED VIA SPACETRACK.ORG API","ORIGINATOR":"18 SPCS","NORAD_CAT_ID":"43477","OBJECT_NAME":"GRACE-FO 2","OBJECT_TYPE":"PAYLOAD","CLASSIFICATION_TYPE":"U","INTLDES":"18047B","EPOCH":"2024-01-06 12:17:29","EPOCH_MICROSECONDS":"810976","MEAN_MOTION":"15.27771763","ECCENTRICITY":"0.0012607","INCLINATION":"88.9835","RA_OF_ASC_NODE":"321.4642","ARG_OF_PERICENTER":"348.9154","MEAN_ANOMALY":"11.1815","EPHEMERIS_TYPE":"0","ELEMENT_SET_NO":"999","REV_AT_EPOCH":"31302","BSTAR":"0.00013504","MEAN_MOTION_DOT":"0.00003697","MEAN_MOTION_DDOT":"0","FILE":"4155150","TLE_LINE0":"0 GRACE-FO 2","TLE_LINE1":"1 43477U 18047B   24006.51215059  .00003697  00000-0  13504-3 0  9996","TLE_LINE2":"2 43477  88.9835 321.4642 0012607 348.9154  11.1815 15.27771763313022","OBJECT_ID":"2018-047B","OBJECT_NUMBER":"43477","SEMIMAJOR_AXIS":"6860.612","PERIOD":"94.255","APOGEE":"491.126","PERIGEE":"473.828","DECAYED":"0"},{"COMMENT":"GENERATED VIA SPACETRACK.ORG API","ORIGINATOR":"18 SPCS","NORAD_CAT_ID":"43477","OBJECT_NAME":"GRACE-FO 2","OBJECT_TYPE":"PAYLOAD","CLASSIFICATION_TYPE":"U","INTLDES":"18047B","EPOCH":"2024-01-07 13:26:37","EPOCH_MICROSECONDS":"135392","MEAN_MOTION":"15.27787034","ECCENTRICITY":"0.0012359","INCLINATION":"88.9836","RA_OF_ASC_NODE":"321.3208","ARG_OF_PERICENTER":"344.7247","MEAN_ANOMALY":"15.3627","EPHEMERIS_TYPE":"0","ELEMENT_SET_NO":"999","REV_AT_EPOCH":"31318","BSTAR":"0.00015185","MEAN_MOTION_DOT":"0.00004155","MEAN_MOTION_DDOT":"0","FILE":"4155883","TLE_LINE0":"0 GRACE-FO 2","TLE_LINE1":"1 43477U 18047B   24007.56015203  .00004155  00000-0  15185-3 0  9998","TLE_LINE2":"2 43477  88.9836 321.3208 0012359 344.7247  15.3627 15.27787034313183","OBJECT_ID":"2018-047B","OBJECT_NUMBER":"43477","SEMIMAJOR_AXIS":"6860.566","PERIOD":"94.254","APOGEE":"490.910","PERIGEE":"473.952","DECAYED":"0"},{"COMMENT":"GENERATED VIA SPACETRACK.ORG API","ORIGINATOR":"18 SPCS","NORAD_CAT_ID":"43477","OBJECT_NAME":"GRACE-FO 2","OBJECT_TYPE":"PAYLOAD","CLASSIFICATION_TYPE":"U","INTLDES":"18047B","EPOCH":"2024-01-07 19:43:53","EPOCH_MICROSECONDS":"899104","MEAN_MOTION":"15.27789238","ECCENTRICITY":"0.0012312","INCLINATION":"88.9836","RA_OF_ASC_NODE":"321.2849","ARG_OF_PERICENTER":"343.6591","MEAN_ANOMALY":"16.426","EPHEMERIS_TYPE":"0","ELEMENT_SET_NO":"999","REV_AT_EPOCH":"31322","BSTAR":"0.00015439","MEAN_MOTION_DOT":"0.00004225","MEAN_MOTION_DDOT":"0","FILE":"4155934","TLE_LINE0":"0 GRACE-FO 2","TLE_LINE1":"1 43477U 18047B   24007.82215161  .00004225  00000-0  15439-3 0  9992","TLE_LINE2":"2 43477  88.9836 321.2849 0012312 343.6591  16.4260 15.27789238313220","OBJECT_ID":"2018-047B","OBJECT_NUMBER":"43477","SEMIMAJOR_AXIS":"6860.560","PERIOD":"94.254","APOGEE":"490.871","PERIGEE":"473.978","DECAYED":"0"},{"COMMENT":"GENERATED VIA SPACETRACK.ORG API","ORIGINATOR":"18 SPCS","NORAD_CAT_ID":"43477","OBJECT_NAME":"GRACE-FO 2","OBJECT_TYPE":"PAYLOAD","CLASSIFICATION_TYPE":"U","INTLDES":"18047B","EPOCH":"2024-01-07 21:18:13","EPOCH_MICROSECONDS":"78368","MEAN_MOTION":"15.27789312","ECCENTRICITY":"0.0012298","INCLINATION":"88.9836","RA_OF_ASC_NODE":"321.2759","ARG_OF_PERICENTER":"343.3895","MEAN_ANOMALY":"16.6949","EPHEMERIS_TYPE":"0","ELEMENT_SET_NO":"999","REV_AT_EPOCH":"31323","BSTAR":"0.00014572","MEAN_MOTION_DOT":"0.00003989","MEAN_MOTION_DDOT":"0","FILE":"4156156","TLE_LINE0":"0 GRACE-FO 2","TLE_LINE1":"1 43477U 18047B   24007.88765137  .00003989  00000-0  14572-3 0  9994","TLE_LINE2":"2 43477  88.9836 321.2759 0012298 343.3895  16.6949 15.27789312313237","OBJECT_ID":"2018-047B","OBJECT_NUMBER":"43477","SEMIMAJOR_AXIS":"6860.559","PERIOD":"94.254","APOGEE":"490.862","PERIGEE":"473.987","DECAYED":"0"},{"COMMENT":"GENERATED VIA SPACETRACK.ORG API","ORIGINATOR":"18 SPCS","NORAD_CAT_ID":"43477","OBJECT_NAME":"GRACE-FO 2","OBJECT_TYPE":"PAYLOAD","CLASSIFICATION_TYPE":"U","INTLDES":"18047B","EPOCH":"2024-01-08 14:35:43","EPOCH_MICROSECONDS":"999296","MEAN_MOTION":"15.27795304","ECCENTRICITY":"0.0012158","INCLINATION":"88.9837","RA_OF_ASC_NODE":"321.1772","ARG_OF_PERICENTER":"340.4271","MEAN_ANOMALY":"19.651","EPHEMERIS_TYPE":"0","ELEMENT_SET_NO":"999","REV_AT_EPOCH":"31334","BSTAR":"0.00015568","MEAN_MOTION_DOT":"0.0000426","MEAN_MOTION_DDOT":"0","FILE":"4156666","TLE_LINE0":"0 GRACE-FO 2","TLE_LINE1":"1 43477U 18047B   24008.60814814  .00004260  00000-0  15568-3 0  9991","TLE_LINE2":"2 43477  88.9837 321.1772 0012158 340.4271  19.6510 15.27795304313340","OBJECT_ID":"2018-047B","OBJECT_NUMBER":"43477","SEMIMAJOR_AXIS":"6860.541","PERIOD":"94.253","APOGEE":"490.748","PERIGEE":"474.065","DECAYED":"0"}]